[ {"name": "STARLINK-30348", "line1": "1 57712U 23129Q   26104.20872393  .00008788  00000+0  32864-3 0  9992", "line2": "2 57712  43.0023 277.4044 0001755 254.9377 105.1281 15.27566142146119"}, {"name": "STARLINK-30349", "line1": "1 57713U 23129R   26103.95486851  .00000691  00000+0  34638-4 0  9991", "line2": "2 57713  43.0037 278.9347 0001626 275.5979  84.4687 15.27569421145932"}, {"name": "STARLINK-30341", "line1": "1 57714U 23129S   26104.19535612  .00002765  00000+0  10994-3 0  9991", "line2": "2 57714  43.0005 280.6997 0001341 270.4809  89.5889 15.27583469146073"}, {"name": "STARLINK-30300", "line1": "1 57715U 23129T   26104.20483846  .00002497  00000+0  10026-3 0  9993", "line2": "2 57715  43.0107 277.3738 0002789 265.4916  94.5617 15.27582586146112"}, {"name": "STARLINK-30281", "line1": "1 57716U 23129U   26103.76898486  .00002151  00000+0  87654-4 0  9993", "line2": "2 57716  43.0020 280.1144 0001206 265.6839  94.3875 15.27580810145907"}, {"name": "STARLINK-30325", "line1": "1 57717U 23129V   26103.49330446  .00001226  00000+0  54096-4 0  9997", "line2": "2 57717  43.0038 281.4907 0002392 266.5534  93.5044 15.27576482146008"}, {"name": "STARLINK-30338", "line1": "1 57718U 23129W   26103.76513360  .00001220  00000+0  53870-4 0  9999", "line2": "2 57718  43.0016 280.0854 0001379 265.7813  94.2881 15.27575526146045"}, {"name": "STARLINK-30334", "line1": "1 57719U 23129X   26103.76127117  .00002273  00000+0  92072-4 0  9997", "line2": "2 57719  43.0008 280.0588 0001382 264.7342  95.3352 15.27583730145894"}, {"name": "STARLINK-30375", "line1": "1 57732U 23131A   26104.27801217  .00004495  00000+0  17274-3 0  9990", "line2": "2 57732  43.0007 316.6140 0001445 279.6710  80.3978 15.27582620145549"}, {"name": "STARLINK-30310", "line1": "1 57733U 23131B   26104.25002315  .00025726  00000+0  15200-2 0  9997", "line2": "2 57733  43.0001 337.9412 0003300 286.7440 325.2693 15.11029285  5718"}, {"name": "STARLINK-30365", "line1": "1 57734U 23131C   26103.91532576  .00001526  00000+0  66564-4 0  9990", "line2": "2 57734  43.0011 333.4945 0001196 270.4371  89.6343 15.26740258145305"}, {"name": "STARLINK-30371", "line1": "1 57735U 23131D   26104.25002315  .00024797  00000+0  14024-2 0  9999", "line2": "2 57735  43.0012 338.1029 0001986 328.4285 216.2956 15.12622566  5711"}, {"name": "STARLINK-30352", "line1": "1 57736U 23131E   26104.25002315  .00022943  00000+0  13186-2 0  9999", "line2": "2 57736  43.0007 337.9216 0001791 272.3894 349.1017 15.12081512  5813"}, {"name": "STARLINK-30344", "line1": "1 57737U 23131F   26104.03896280  .00005209  00000+0  36841-3 0  9998", "line2": "2 57737  43.0039 338.6996 0001772 249.3032 110.7622 15.05693155145250"}, {"name": "STARLINK-30351", "line1": "1 57738U 23131G   26103.96337499  .00009521  00000+0  35503-3 0  9997", "line2": "2 57738  43.0050 333.0339 0001447 242.2140 117.8565 15.27584494145315"}, {"name": "STARLINK-30242", "line1": "1 57739U 23131H   26104.26838621  .00001289  00000+0  56374-4 0  9998", "line2": "2 57739  43.0065 302.7221 0001413 271.3356  88.7334 15.27576877145697"}, {"name": "STARLINK-30331", "line1": "1 57740U 23131J   26104.12243776  .00000032  00000+0  10673-4 0  9993", "line2": "2 57740  43.0017 259.2951 0001181 271.4936  88.5780 15.27573030146196"}, {"name": "STARLINK-30364", "line1": "1 57741U 23131K   26104.00002315  .00041031  00000+0  14932-2 0  9997", "line2": "2 57741  43.0027 332.7992 0001616 275.5688 300.3238 15.27559181  5842"}, {"name": "STARLINK-30308", "line1": "1 57742U 23131L   26103.91365727  .00002464  00000+0  10154-3 0  9996", "line2": "2 57742  43.0027 333.5185 0001286 266.4876  93.5828 15.26734609145319"}, {"name": "STARLINK-30361", "line1": "1 57743U 23131M   26104.25002315 -.00013309  00000+0 -47485-3 0  9995", "line2": "2 57743  43.0028 331.4679 0001634 276.0625 200.9281 15.27589095  5839"}, {"name": "STARLINK-30363", "line1": "1 57744U 23131N   26103.90202762  .00001208  00000+0  54702-4 0  9999", "line2": "2 57744  43.0064 318.9572 0001515 266.3747  93.6931 15.26739305145471"}, {"name": "STARLINK-30362", "line1": "1 57745U 23131P   26104.01092577  .00000356  00000+0  22445-4 0  9996", "line2": "2 57745  43.0036 333.3800 0001005 357.9790   2.1057 15.27598515145319"}, {"name": "STARLINK-30350", "line1": "1 57746U 23131Q   26103.91647722  .00003687  00000+0  14342-3 0  9999", "line2": "2 57746  43.0026 330.1181 0001345 274.6492  85.4206 15.27583095145347"}, {"name": "STARLINK-30307", "line1": "1 57747U 23131R   26103.92496016  .00001885  00000+0  79945-4 0  9998", "line2": "2 57747  43.0028 333.5942 0001427 273.7437  86.3251 15.26745740145304"}, {"name": "STARLINK-30356", "line1": "1 57748U 23131S   26104.01149354  .00000760  00000+0  37999-4 0  9994", "line2": "2 57748  43.0036 332.5317 0000699 273.1334  86.9437 15.26740830145328"}, {"name": "STARLINK-30366", "line1": "1 57749U 23131T   26103.92032941 -.00004737  00000+0 -17141-3 0  9993", "line2": "2 57749  43.0053 336.1145 0002126 256.0269 104.0346 15.25895547145271"}, {"name": "STARLINK-30357", "line1": "1 57750U 23131U   26104.25002315  .00025654  00000+0  15389-2 0  9994", "line2": "2 57750  43.0014 338.1169 0002411 330.9349 206.9431 15.10484361  5719"}, {"name": "STARLINK-30370", "line1": "1 57751U 23131V   26103.87293249  .00012424  00000+0  44474-3 0  9999", "line2": "2 57751  43.0000 318.7691 0001583 272.3545  87.7126 15.28707409145479"}, {"name": "STARLINK-30368", "line1": "1 57752U 23131W   26103.33217473 -.00073808  00000+0 -27845-2 0  9993", "line2": "2 57752  42.9887 336.8478 0003014 256.0295 104.0221 15.26555902145215"}, {"name": "STARLINK-30343", "line1": "1 57753U 23131X   26104.25002315  .00025157  00000+0  14670-2 0  9997", "line2": "2 57753  43.0010 338.1130 0002881 330.1904 209.8734 15.11514249  5714"}, {"name": "STARLINK-30397", "line1": "1 57771U 23134A   26103.99411548  .00006599  00000+0  24913-3 0  9993", "line2": "2 57771  43.0022 355.3278 0000907 281.1950  78.8799 15.27578700144903"}, {"name": "STARLINK-30354", "line1": "1 57772U 23134B   26103.42803152  .00042908  00000+0  15860-2 0  9992", "line2": "2 57772  42.9992   1.3600 0000987   8.5896 351.4972 15.27030804144780"}, {"name": "STARLINK-30383", "line1": "1 57773U 23134C   26104.08327305 -.00000225  00000+0  13394-5 0  9997", "line2": "2 57773  43.0052 357.6890 0001500 270.3412  89.7268 15.27579521144887"}, {"name": "STARLINK-30384", "line1": "1 57774U 23134D   26104.01151014  .00002132  00000+0  89144-4 0  9996", "line2": "2 57774  43.0069 358.0001 0000941 327.7222  32.3571 15.26745787144877"}, {"name": "STARLINK-30305", "line1": "1 57775U 23134E   26103.73641976  .00001571  00000+0  66599-4 0  9991", "line2": "2 57775  43.0019 356.8316 0000988 275.1358  84.9380 15.27571260144869"}, {"name": "STARLINK-30360", "line1": "1 57776U 23134F   26103.93386529  .00003082  00000+0  12151-3 0  9997", "line2": "2 57776  43.0015 355.7321 0001159 281.8115  78.2607 15.27573796144893"}, {"name": "STARLINK-30355", "line1": "1 57777U 23134G   26103.97937904 -.00000151  00000+0  40442-5 0  9992", "line2": "2 57777  43.0045 358.5971 0001460 266.8351  93.2333 15.26741704144853"}, {"name": "STARLINK-30385", "line1": "1 57778U 23134H   26104.08252036 -.00000009  00000+0  92161-5 0  9999", "line2": "2 57778  43.0034 343.1177 0001428 273.1141  86.9547 15.27580027144892"}, {"name": "STARLINK-30359", "line1": "1 57779U 23134J   26103.96588117  .00002869  00000+0  11376-3 0  9990", "line2": "2 57779  43.0013 344.0025 0001330 263.3423  96.7277 15.27572124145033"}, {"name": "STARLINK-30380", "line1": "1 57780U 23134K   26103.97226286 -.00002288  00000+0 -73626-4 0  9993", "line2": "2 57780  43.0038 355.1461 0001635 269.5093  90.5571 15.27589359144900"}, {"name": "STARLINK-30369", "line1": "1 57781U 23134L   26104.03379166 -.00000012  00000+0  90946-5 0  9995", "line2": "2 57781  43.0041 354.7470 0001552 258.7831 101.2846 15.27587855144913"}, {"name": "STARLINK-30376", "line1": "1 57782U 23134M   26104.25002315  .00012337  00000+0  45706-3 0  9993", "line2": "2 57782  43.0046 353.4085 0001578 270.9026 256.2845 15.27581545  5890"}, {"name": "STARLINK-30389", "line1": "1 57783U 23134N   26104.00002315  .00004953  00000+0  18944-3 0  9996", "line2": "2 57783  43.0036 358.1368 0001346 272.4700 356.3354 15.27574249  5840"}, {"name": "STARLINK-30388", "line1": "1 57784U 23134P   26103.96199045 -.00000359  00000+0 -35313-5 0  9997", "line2": "2 57784  43.0058 355.0817 0001478 259.4210 100.6475 15.27574815144901"}, {"name": "STARLINK-30381", "line1": "1 57785U 23134Q   26103.97996029  .00000581  00000+0  30657-4 0  9996", "line2": "2 57785  43.0032 355.1171 0001592 268.2415  91.8254 15.27576023144909"}, {"name": "STARLINK-30382", "line1": "1 57786U 23134R   26103.43117985 -.00000802  00000+0 -19615-4 0  9993", "line2": "2 57786  43.0079 357.9783 0002172 256.6133 103.4477 15.27585225144825"}, {"name": "STARLINK-30378", "line1": "1 57787U 23134S   26103.99026070 -.00000685  00000+0 -15397-4 0  9991", "line2": "2 57787  43.0021 355.2861 0001020 275.9667  84.1069 15.27562168144900"}, {"name": "STARLINK-30387", "line1": "1 57788U 23134T   26104.08638281  .00002036  00000+0  83529-4 0  9998", "line2": "2 57788  43.0000 343.1839 0001238 267.3540  92.7170 15.27570294145059"}, {"name": "STARLINK-30372", "line1": "1 57789U 23134U   26104.09836386  .00003066  00000+0  12094-3 0  9998", "line2": "2 57789  43.0023 238.4090 0001355 257.5007 102.5693 15.27571213146287"}, {"name": "STARLINK-30367", "line1": "1 57791U 23134W   26103.97612130  .00004859  00000+0  18597-3 0  9991", "line2": "2 57791  43.0022 355.1779 0002020 267.0715  92.9905 15.27584134144903"}, {"name": "STARLINK-30374", "line1": "1 57809U 23138B   26104.07745422  .00001465  00000+0  62728-4 0  9994", "line2": "2 57809  43.0043  34.0536 0000960 263.4699  96.6044 15.27584238144159"}, {"name": "STARLINK-30394", "line1": "1 57810U 23138C   26104.15699423  .00009257  00000+0  34578-3 0  9992", "line2": "2 57810  43.0050  33.7893 0000906 275.1284  84.9464 15.27552943144065"}]